[{"OBJECT_NAME":"ONEWEB-0151","OBJECT_ID":"2021-025AA","EPOCH":"2026-03-09T19:30:47.900160","MEAN_MOTION":13.13469771,"ECCENTRICITY":0.00018127,"INCLINATION":87.9037,"RA_OF_ASC_NODE":339.9892,"ARG_OF_PERICENTER":81.8028,"MEAN_ANOMALY":278.3307,"EPHEMERIS_TYPE":0,"CLASSIFICATION_TYPE":"U","NORAD_CAT_ID":48066,"ELEMENT_SET_NO":999,"REV_AT_EPOCH":24054,"BSTAR":0.00094826988,"MEAN_MOTION_DOT":3.59e-6,"MEAN_MOTION_DDOT":0},{"OBJECT_NAME":"OBJECT F","OBJECT_ID":"2021-020F","EPOCH":"2026-03-09T23:34:00.416064","MEAN_MOTION":13.44626351,"ECCENTRICITY":0.01637521,"INCLINATION":63.408,"RA_OF_ASC_NODE":160.6649,"ARG_OF_PERICENTER":1.5906,"MEAN_ANOMALY":358.5607,"EPHEMERIS_TYPE":0,"CLASSIFICATION_TYPE":"U","NORAD_CAT_ID":47859,"ELEMENT_SET_NO":999,"REV_AT_EPOCH":24506,"BSTAR":0.00039011787,"MEAN_MOTION_DOT":1.57e-6,"MEAN_MOTION_DDOT":0}]
